IRIDIUM 119             
1 42959U 17061E   24091.20725841  .00000655  00000+0  22665-3 0  9998
2 42959  86.4032   2.9037 0002374  89.1090 271.0377 14.34217921339004
IRIDIUM 107             
1 42960U 17061F   24091.50537142  .00000499  00000+0  17111-3 0  9994
2 42960  86.4032   2.7956 0002500  85.4059 274.7422 14.34211365339062
IRIDIUM 132             
1 42961U 17061G   24091.51169874  .00000274  00000+0  90914-4 0  9993
2 42961  86.4032   2.7782 0002477  85.8451 274.3028 14.34218179339050
IRIDIUM 136             
1 42962U 17061H   24091.47364214  .00000349  00000+0  11762-3 0  9990
2 42962  86.4031   2.7969 0002228  93.1418 267.0033 14.34215579339063
IRIDIUM 139             
1 42963U 17061J   24091.20091329  .00000581  00000+0  20029-3 0  9990
2 42963  86.4035   2.9595 0002504  84.2503 275.8978 14.34213914339031
IRIDIUM 125             
1 42964U 17061K   24091.25799505  .00000469  00000+0  16031-3 0  9990
2 42964  86.4033   2.9820 0002415  92.0131 268.1341 14.34218331339055
IRIDIUM 135             
1 43070U 17083A   24090.95303546  .00000028  00000+0  31030-5 0  9994
2 43070  86.3929 299.8041 0001975  77.1466 282.9950 14.34213073328308
IRIDIUM 138             
1 43071U 17083B   24091.11794956  .00000022  00000+0  69516-6 0  9998
2 43071  86.3915 299.4619 0002298  94.3366 265.8092 14.34210609328310
